INTELSAT 21 (IS-21)     
1 38749U 12045A   26158.19151208 -.00000271  00000+0  00000+0 0  9991
2 38749   0.0435  86.4307 0002037 357.2616 182.8673  1.00272646 50429
INTELSAT 23 (IS-23)     
1 38867U 12057A   26158.25542394 -.00000270  00000+0  00000+0 0  9991
2 38867   0.0126 327.3337 0000573 121.5820 205.6922  1.00275888 49856
FM-6                    
1 39360U 13058A   26158.25127152  .00000001  00000+0  00000+0 0  9994
2 39360   0.0160  52.9052 0002473  98.4174  78.4470  1.00252250 45974
INTELSAT 30 (IS-30)     
1 40271U 14062A   26158.18316286 -.00000136  00000+0  00000+0 0  9993
2 40271   0.0231  41.8371 0000995 355.8701 188.7404  1.00270215  6699
DIRECTV 14              
1 40333U 14078B   26158.19003021 -.00000111  00000+0  00000+0 0  9993
2 40333   0.0092 348.3328 0000466 191.5531  44.8845  1.00270265 41942
DIRECTV 15              
1 40663U 15026A   26158.25991174 -.00000088  00000+0  00000+0 0  9998
2 40663   0.0180 359.6834 0000403 230.4335  16.2473  1.00271734 40366
SKY MEXICO-1            
1 40664U 15026B   26158.19232529 -.00000220  00000+0  00000+0 0  9992
2 40664   0.0158  49.6664 0002251  43.8665 152.5101  1.00271898 40356
INTELSAT 34 (IS-34)     
1 40874U 15039A   26158.16780808 -.00000271  00000+0  00000+0 0  9990
2 40874   0.0096 325.8721 0000227  47.3393 247.2900  1.00270712 39532
INTELSAT 31 (IS-31)     
1 41581U 16035A   26158.22961490 -.00000137  00000+0  00000+0 0  9999
2 41581   0.0188 260.4134 0000894 331.4575  11.3878  1.00270615 36589
INTELSAT 36 (IS-36)     
1 41747U 16053A   26158.21653002 -.00000010  00000+0  00000+0 0  9999
2 41747   0.0101 350.7226 0001766 350.0426  61.3111  1.00272302 35853
INTELSAT 32E (IS-32E)   
1 41945U 17007B   26158.19442992 -.00000255  00000+0  00000+0 0  9991
2 41945   0.0180 333.1409 0000339 344.1070 325.1747  1.00270129 34122
INTELSAT 35E (IS-35E)   
1 42818U 17041A   26158.29480182 -.00000223  00000+0  00000+0 0  9998
2 42818   0.0179  56.6344 0001868  19.5420 251.1770  1.00272996 32716
INTELSAT 37E (IS-37E)   
1 42950U 17059A   26158.19945661  .00000000  00000+0  00000+0 0  9993
2 42950   0.0157 346.3354 0002498 111.8218 211.2626  1.00268788 31967
AZERSPACE 2 (IS-38)     
1 43632U 18074A   26158.21193667  .00000151  00000+0  00000+0 0  9990
2 43632   0.0177 314.7574 0001538 118.2090 304.0654  1.00271229 28347
HORIZONS-3E             
1 43633U 18074B   26157.80870478 -.00000017  00000+0  00000+0 0  9999
2 43633   0.0165 151.8957 0000828 142.2453  61.2147  1.00270465 28239
AT&T T-16               
1 44333U 19034A   26158.19003021 -.00000101  00000+0  00000+0 0  9993
2 44333   0.0204  59.9403 0000510 194.2517 328.9694  1.00269190 25534
INTELSAT 39 (IS-39)     
1 44476U 19049B   26158.21531669  .00000048  00000+0  00000+0 0  9993
2 44476   0.0163 307.7361 0000732  14.2904  73.0715  1.00271243 25028
GALAXY 30 (G-30)        
1 46114U 20056C   26158.24953817  .00000051  00000+0  00000+0 0  9994
2 46114   0.0177 355.3020 0002257  79.3374 145.8433  1.00272621 21192
GALAXY 33 (G-33)        
1 54026U 22128A   26158.26731380  .00000093  00000+0  00000+0 0  9994
2 54026   0.0245  54.3272 0001893  21.8932 142.7022  1.00272327 13645
GALAXY 34 (G-34)        
1 54027U 22128B   26158.27825483  .00000073  00000+0  00000+0 0  9992
2 54027   0.0093 329.9038 0001888 116.1135 140.8460  1.00272631 13817
GALAXY 31 (G-31)        
1 54243U 22153A   26158.25023152  .00000027  00000+0  00000+0 0  9990
2 54243   0.0291  96.9802 0001365 340.2751 147.4895  1.00272315  7032
GALAXY 32 (G-32)        
1 54244U 22153B   26158.22961490 -.00000160  00000+0  00000+0 0  9993
2 54244   0.0092 328.6905 0002169  69.5922 209.0222  1.00269815 13043
GALAXY 35 (G-35)        
1 54741U 22170A   26158.18447527 -.00000148  00000+0  00000+0 0  9995
2 54741   0.0189  71.9165 0002149   7.5721 149.4228  1.00271827 12795
GALAXY 36 (G-36)        
1 54742U 22170B   26158.18535872 -.00000171  00000+0  00000+0 0  9993
2 54742   0.0128 164.1120 0002749 278.0765 151.1434  1.00271516 12675
GALAXY 37 (G-37)        
1 57493U 23112A   26158.24919150  .00000062  00000+0  00000+0 0  9996
2 57493   0.0173 326.8730 0002056 109.7288 141.7688  1.00271604 10443
