OBJECT_NAME,OBJECT_ID,EPOCH,MEAN_MOTION,ECCENTRICITY,INCLINATION,RA_OF_ASC_NODE,ARG_OF_PERICENTER,MEAN_ANOMALY,EPHEMERIS_TYPE,CLASSIFICATION_TYPE,NORAD_CAT_ID,ELEMENT_SET_NO,REV_AT_EPOCH,BSTAR,MEAN_MOTION_DOT,MEAN_MOTION_DDOT
INTELSAT 21 (IS-21),2012-045A,2026-06-07T04:35:46.643712,1.00272646,.00020371,0.0435,86.4307,357.2616,182.8673,0,U,38749,999,5042,0,-.271E-5,0
INTELSAT 23 (IS-23),2012-057A,2026-06-07T06:07:48.628416,1.00275888,.00005734,0.0126,327.3337,121.5820,205.6922,0,U,38867,999,4985,0,-.27E-5,0
FM-6,2013-058A,2026-06-07T06:01:49.859328,1.00252250,.0002473,0.0160,52.9052,98.4174,78.4470,0,U,39360,999,4597,0,.1E-7,0
INTELSAT 30 (IS-30),2014-062A,2026-06-07T04:23:45.271968,1.00270215,.0000995,0.0231,41.8371,355.8701,188.7404,0,U,40271,999,669,0,-.136E-5,0
DIRECTV 14,2014-078B,2026-06-07T04:33:38.610144,1.00270265,.00004669,0.0092,348.3328,191.5531,44.8845,0,U,40333,999,4194,0,-.111E-5,0
DIRECTV 15,2015-026A,2026-06-07T06:14:16.374336,1.00271734,.00004034,0.0180,359.6834,230.4335,16.2473,0,U,40663,999,4036,0,-.88E-6,0
SKY MEXICO-1,2015-026B,2026-06-07T04:36:56.905920,1.00271898,.00022507,0.0158,49.6664,43.8665,152.5101,0,U,40664,999,4035,0,-.22E-5,0
INTELSAT 34 (IS-34),2015-039A,2026-06-07T04:01:38.618112,1.00270712,.0000227,0.0096,325.8721,47.3393,247.2900,0,U,40874,999,3953,0,-.271E-5,0
INTELSAT 31 (IS-31),2016-035A,2026-06-07T05:30:38.727360,1.00270615,.00008942,0.0188,260.4134,331.4575,11.3878,0,U,41581,999,3658,0,-.137E-5,0
INTELSAT 36 (IS-36),2016-053A,2026-06-07T05:11:48.193728,1.00272302,.00017663,0.0101,350.7226,350.0426,61.3111,0,U,41747,999,3585,0,-.1E-6,0
INTELSAT 32E (IS-32E),2017-007B,2026-06-07T04:39:58.745088,1.00270129,.00003392,0.0180,333.1409,344.1070,325.1747,0,U,41945,999,3412,0,-.255E-5,0
INTELSAT 35E (IS-35E),2017-041A,2026-06-07T07:04:30.877248,1.00272996,.00018682,0.0179,56.6344,19.5420,251.1770,0,U,42818,999,3271,0,-.223E-5,0
INTELSAT 37E (IS-37E),2017-059A,2026-06-07T04:47:13.051104,1.00268788,.0002498,0.0157,346.3354,111.8218,211.2626,0,U,42950,999,3196,0,0,0
AZERSPACE 2 (IS-38),2018-074A,2026-06-07T05:05:11.328288,1.00271229,.00015386,0.0177,314.7574,118.2090,304.0654,0,U,43632,999,2834,0,.151E-5,0
HORIZONS-3E,2018-074B,2026-06-06T19:24:32.093856,1.00270465,.0000828,0.0165,151.8957,142.2453,61.2147,0,U,43633,999,2823,0,-.17E-6,0
AT&T T-16,2019-034A,2026-06-07T04:33:38.610144,1.00269190,.00005106,0.0204,59.9403,194.2517,328.9694,0,U,44333,999,2553,0,-.101E-5,0
INTELSAT 39 (IS-39),2019-049B,2026-06-07T05:10:03.362016,1.00271243,.00007323,0.0163,307.7361,14.2904,73.0715,0,U,44476,999,2502,0,.48E-6,0
GALAXY 30 (G-30),2020-056C,2026-06-07T05:59:20.097888,1.00272621,.00022572,0.0177,355.3020,79.3374,145.8433,0,U,46114,999,2119,0,.51E-6,0
GALAXY 33 (G-33),2022-128A,2026-06-07T06:24:55.912320,1.00272327,.00018934,0.0245,54.3272,21.8932,142.7022,0,U,54026,999,1364,0,.93E-6,0
GALAXY 34 (G-34),2022-128B,2026-06-07T06:40:41.217312,1.00272631,.00018888,0.0093,329.9038,116.1135,140.8460,0,U,54027,999,1381,0,.73E-6,0
GALAXY 31 (G-31),2022-153A,2026-06-07T06:00:20.003328,1.00272315,.00013653,0.0291,96.9802,340.2751,147.4895,0,U,54243,999,703,0,.27E-6,0
GALAXY 32 (G-32),2022-153B,2026-06-07T05:30:38.727360,1.00269815,.00021698,0.0092,328.6905,69.5922,209.0222,0,U,54244,999,1304,0,-.16E-5,0
GALAXY 35 (G-35),2022-170A,2026-06-07T04:25:38.663328,1.00271827,.00021499,0.0189,71.9165,7.5721,149.4228,0,U,54741,999,1279,0,-.148E-5,0
GALAXY 36 (G-36),2022-170B,2026-06-07T04:26:54.993408,1.00271516,.00027499,0.0128,164.1120,278.0765,151.1434,0,U,54742,999,1267,0,-.171E-5,0
GALAXY 37 (G-37),2023-112A,2026-06-07T05:58:50.145600,1.00271604,.00020568,0.0173,326.8730,109.7288,141.7688,0,U,57493,999,1044,0,.62E-6,0
